{
  "type": "FeatureCollection",
  "features": [
    {
      "type": "Feature",
      "properties": {
        "norad_id": 57400,
        "name": "TIANMU-1 08",
        "group": "weather",
        "lat": -79.59290152792484,
        "lon": -174.56789756492765,
        "alt_km": 492.1884169765617,
        "timestamp": "2025-12-26T05:31:12.142307+00:00",
        "meta_object_name": "TIANMU-1 08",
        "meta_object_id": "2023-101B",
        "meta_epoch": "2025-12-25T23:39:37.016640",
        "meta_mean_motion": 15.28239632,
        "meta_eccentricity": 0.00068866,
        "meta_inclination": 97.2845,
        "meta_ra_of_asc_node": 49.3389,
        "meta_arg_of_pericenter": 46.1279,
        "meta_mean_anomaly": 314.0528,
        "meta_ephemeris_type": 0,
        "meta_classification_type": "U",
        "meta_norad_cat_id": 57400,
        "meta_element_set_no": 999,
        "meta_rev_at_epoch": 13517,
        "meta_bstar": 0.00025829381,
        "meta_mean_motion_dot": 7.039e-05,
        "meta_mean_motion_ddot": 0,
        "tle_line1": "1 57400U 23101B   25359.98584510  .00007039  00000+0  25829-3 0  9994",
        "tle_line2": "2 57400  97.2845  49.3389 0006886  46.1279 314.0528 15.28239632135177"
      },
      "geometry": {
        "type": "Point",
        "coordinates": [
          -174.56789756492765,
          -79.59290152792484
        ]
      }
    },
    {
      "type": "Feature",
      "properties": {
        "norad_id": 57401,
        "name": "TIANMU-1 09",
        "group": "weather",
        "lat": -23.174342537528386,
        "lon": 52.221087314092124,
        "alt_km": 485.0261742960647,
        "timestamp": "2025-12-26T05:31:12.142319+00:00",
        "meta_object_name": "TIANMU-1 09",
        "meta_object_id": "2023-101C",
        "meta_epoch": "2025-12-25T21:45:53.932608",
        "meta_mean_motion": 15.28275024,
        "meta_eccentricity": 0.0006168,
        "meta_inclination": 97.2802,
        "meta_ra_of_asc_node": 48.7682,
        "meta_arg_of_pericenter": 47.4563,
        "meta_mean_anomaly": 312.7197,
        "meta_ephemeris_type": 0,
        "meta_classification_type": "U",
        "meta_norad_cat_id": 57401,
        "meta_element_set_no": 999,
        "meta_rev_at_epoch": 13516,
        "meta_bstar": 0.00029671945,
        "meta_mean_motion_dot": 8.106e-05,
        "meta_mean_motion_ddot": 0,
        "tle_line1": "1 57401U 23101C   25359.90687422  .00008106  00000+0  29672-3 0  9999",
        "tle_line2": "2 57401  97.2802  48.7682 0006168  47.4563 312.7197 15.28275024135164"
      },
      "geometry": {
        "type": "Point",
        "coordinates": [
          52.221087314092124,
          -23.174342537528386
        ]
      }
    },
    {
      "type": "Feature",
      "properties": {
        "norad_id": 57402,
        "name": "TIANMU-1 10",
        "group": "weather",
        "lat": 31.197319561390383,
        "lon": -125.60690593684826,
        "alt_km": 480.72401810049996,
        "timestamp": "2025-12-26T05:31:12.142329+00:00",
        "meta_object_name": "TIANMU-1 10",
        "meta_object_id": "2023-101D",
        "meta_epoch": "2025-12-25T22:35:15.749664",
        "meta_mean_motion": 15.28267249,
        "meta_eccentricity": 0.00078716,
        "meta_inclination": 97.2881,
        "meta_ra_of_asc_node": 49.6656,
        "meta_arg_of_pericenter": 44.6501,
        "meta_mean_anomaly": 315.5372,
        "meta_ephemeris_type": 0,
        "meta_classification_type": "U",
        "meta_norad_cat_id": 57402,
        "meta_element_set_no": 999,
        "meta_rev_at_epoch": 13516,
        "meta_bstar": 0.00028046988,
        "meta_mean_motion_dot": 7.658e-05,
        "meta_mean_motion_ddot": 0,
        "tle_line1": "1 57402U 23101D   25359.94115451  .00007658  00000+0  28047-3 0  9998",
        "tle_line2": "2 57402  97.2881  49.6656 0007871  44.6501 315.5372 15.28267249135162"
      },
      "geometry": {
        "type": "Point",
        "coordinates": [
          -125.60690593684826,
          31.197319561390383
        ]
      }
    },
    {
      "type": "Feature",
      "properties": {
        "norad_id": 57490,
        "name": "FENGYUN 3F",
        "group": "weather",
        "lat": -18.452816202052677,
        "lon": -114.62630597003464,
        "alt_km": 830.5898597439354,
        "timestamp": "2025-12-26T05:31:12.142342+00:00",
        "meta_object_name": "FENGYUN 3F",
        "meta_object_id": "2023-111A",
        "meta_epoch": "2025-12-25T21:49:22.827936",
        "meta_mean_motion": 14.19896976,
        "meta_eccentricity": 8.468e-05,
        "meta_inclination": 98.7066,
        "meta_ra_of_asc_node": 67.9892,
        "meta_arg_of_pericenter": 117.7964,
        "meta_mean_anomaly": 242.3299,
        "meta_ephemeris_type": 0,
        "meta_classification_type": "U",
        "meta_norad_cat_id": 57490,
        "meta_element_set_no": 999,
        "meta_rev_at_epoch": 12427,
        "meta_bstar": 5.7408698e-05,
        "meta_mean_motion_dot": 7.8e-07,
        "meta_mean_motion_ddot": 0,
        "tle_line1": "1 57490U 23111A   25359.90929199  .00000078  00000+0  57409-4 0  9998",
        "tle_line2": "2 57490  98.7066  67.9892 0000846 117.7964 242.3299 14.19896976124274"
      },
      "geometry": {
        "type": "Point",
        "coordinates": [
          -114.62630597003464,
          -18.452816202052677
        ]
      }
    },
    {
      "type": "Feature",
      "properties": {
        "norad_id": 58584,
        "name": "ARKTIKA-M 2",
        "group": "weather",
        "lat": 11.057747083710145,
        "lon": -12.251032847513194,
        "alt_km": 9677.35103034298,
        "timestamp": "2025-12-26T05:31:12.142354+00:00",
        "meta_object_name": "ARKTIKA-M 2",
        "meta_object_id": "2023-198A",
        "meta_epoch": "2025-12-24T19:00:30.507264",
        "meta_mean_motion": 2.00602347,
        "meta_eccentricity": 0.6865959,
        "meta_inclination": 63.2255,
        "meta_ra_of_asc_node": 173.58,
        "meta_arg_of_pericenter": 268.0557,
        "meta_mean_anomaly": 18.8416,
        "meta_ephemeris_type": 0,
        "meta_classification_type": "U",
        "meta_norad_cat_id": 58584,
        "meta_element_set_no": 999,
        "meta_rev_at_epoch": 1482,
        "meta_bstar": 0,
        "meta_mean_motion_dot": 2.24e-06,
        "meta_mean_motion_ddot": 0,
        "tle_line1": "1 58584U 23198A   25358.79201976  .00000224  00000+0  00000+0 0  9993",
        "tle_line2": "2 58584  63.2255 173.5800 6865959 268.0557  18.8416  2.00602347 14827"
      },
      "geometry": {
        "type": "Point",
        "coordinates": [
          -12.251032847513194,
          11.057747083710145
        ]
      }
    },
    {
      "type": "Feature",
      "properties": {
        "norad_id": 58645,
        "name": "TIANMU-1 11",
        "group": "weather",
        "lat": 21.643789581182276,
        "lon": -157.4436956624314,
        "alt_km": 491.8242529773379,
        "timestamp": "2025-12-26T05:31:12.142366+00:00",
        "meta_object_name": "TIANMU-1 11",
        "meta_object_id": "2023-205A",
        "meta_epoch": "2025-12-26T00:06:11.641824",
        "meta_mean_motion": 15.24757483,
        "meta_eccentricity": 0.0007581,
        "meta_inclination": 97.3599,
        "meta_ra_of_asc_node": 19.3945,
        "meta_arg_of_pericenter": 253.4731,
        "meta_mean_anomaly": 106.5674,
        "meta_ephemeris_type": 0,
        "meta_classification_type": "U",
        "meta_norad_cat_id": 58645,
        "meta_element_set_no": 999,
        "meta_rev_at_epoch": 11111,
        "meta_bstar": 0.00026629025,
        "meta_mean_motion_dot": 6.531e-05,
        "meta_mean_motion_ddot": 0,
        "tle_line1": "1 58645U 23205A   25360.00430141  .00006531  00000+0  26629-3 0  9991",
        "tle_line2": "2 58645  97.3599  19.3945 0007581 253.4731 106.5674 15.24757483111119"
      },
      "geometry": {
        "type": "Point",
        "coordinates": [
          -157.4436956624314,
          21.643789581182276
        ]
      }
    },
    {
      "type": "Feature",
      "properties": {
        "norad_id": 58646,
        "name": "TIANMU-1 12",
        "group": "weather",
        "lat": 4.664255176038692,
        "lon": 18.813100331916477,
        "alt_km": 497.2172916493728,
        "timestamp": "2025-12-26T05:31:12.142377+00:00",
        "meta_object_name": "TIANMU-1 12",
        "meta_object_id": "2023-205B",
        "meta_epoch": "2025-12-25T23:11:55.884192",
        "meta_mean_motion": 15.24643998,
        "meta_eccentricity": 0.00060462,
        "meta_inclination": 97.3587,
        "meta_ra_of_asc_node": 19.1585,
        "meta_arg_of_pericenter": 231.3818,
        "meta_mean_anomaly": 128.6879,
        "meta_ephemeris_type": 0,
        "meta_classification_type": "U",
        "meta_norad_cat_id": 58646,
        "meta_element_set_no": 999,
        "meta_rev_at_epoch": 11109,
        "meta_bstar": 0.00025238473,
        "meta_mean_motion_dot": 6.163e-05,
        "meta_mean_motion_ddot": 0,
        "tle_line1": "1 58646U 23205B   25359.96661903  .00006163  00000+0  25238-3 0  9993",
        "tle_line2": "2 58646  97.3587  19.1585 0006046 231.3818 128.6879 15.24643998111095"
      },
      "geometry": {
        "type": "Point",
        "coordinates": [
          18.813100331916477,
          4.664255176038692
        ]
      }
    }
  ]
}